{
  "type": "FeatureCollection",
  "features": [
    {
      "type": "Feature",
      "properties": {
        "norad_id": 49809,
        "name": "GSAT0223 (GALILEO 27)",
        "group": "gnss",
        "lat": -57.02228109091304,
        "lon": -110.24153983976144,
        "alt_km": 23215.16955191423,
        "timestamp": "2025-12-22T20:43:46.092766+00:00",
        "meta_object_name": "GSAT0223 (GALILEO 27)",
        "meta_object_id": "2021-116A",
        "meta_epoch": "2025-12-22T10:14:17.439072",
        "meta_mean_motion": 1.70475902,
        "meta_eccentricity": 0.0004415,
        "meta_inclination": 57.2173,
        "meta_ra_of_asc_node": 346.4518,
        "meta_arg_of_pericenter": 255.5164,
        "meta_mean_anomaly": 102.5504,
        "meta_ephemeris_type": 0,
        "meta_classification_type": "U",
        "meta_norad_cat_id": 49809,
        "meta_element_set_no": 999,
        "meta_rev_at_epoch": 2516,
        "meta_bstar": 0,
        "meta_mean_motion_dot": -6.5e-07,
        "meta_mean_motion_ddot": 0,
        "tle_line1": "1 49809U 21116A   25356.42659073 -.00000065  00000+0  00000+0 0  9998",
        "tle_line2": "2 49809  57.2173 346.4518 0004415 255.5164 102.5504  1.70475902 25166"
      },
      "geometry": {
        "type": "Point",
        "coordinates": [
          -110.24153983976144,
          -57.02228109091304
        ]
      }
    },
    {
      "type": "Feature",
      "properties": {
        "norad_id": 49810,
        "name": "GSAT0224 (GALILEO 28)",
        "group": "gnss",
        "lat": 15.861252759878841,
        "lon": -3.0226447551171045,
        "alt_km": 23225.56415606636,
        "timestamp": "2025-12-22T20:43:46.092779+00:00",
        "meta_object_name": "GSAT0224 (GALILEO 28)",
        "meta_object_id": "2021-116B",
        "meta_epoch": "2025-12-20T04:43:34.979232",
        "meta_mean_motion": 1.70476091,
        "meta_eccentricity": 0.0003747,
        "meta_inclination": 57.2188,
        "meta_ra_of_asc_node": 346.5104,
        "meta_arg_of_pericenter": 259.7047,
        "meta_mean_anomaly": 282.5653,
        "meta_ephemeris_type": 0,
        "meta_classification_type": "U",
        "meta_norad_cat_id": 49810,
        "meta_element_set_no": 999,
        "meta_rev_at_epoch": 2515,
        "meta_bstar": 0,
        "meta_mean_motion_dot": -7e-07,
        "meta_mean_motion_ddot": 0,
        "tle_line1": "1 49810U 21116B   25354.19693263 -.00000070  00000+0  00000+0 0  9997",
        "tle_line2": "2 49810  57.2188 346.5104 0003747 259.7047 282.5653  1.70476091 25152"
      },
      "geometry": {
        "type": "Point",
        "coordinates": [
          -3.0226447551171045,
          15.861252759878841
        ]
      }
    },
    {
      "type": "Feature",
      "properties": {
        "norad_id": 52984,
        "name": "COSMOS 2557 (706K)",
        "group": "gnss",
        "lat": 26.10238538401196,
        "lon": 127.10472744449144,
        "alt_km": 19148.11425570674,
        "timestamp": "2025-12-22T20:43:46.092793+00:00",
        "meta_object_name": "COSMOS 2557 (706K)",
        "meta_object_id": "2022-075A",
        "meta_epoch": "2025-12-21T17:28:49.224000",
        "meta_mean_motion": 2.13102032,
        "meta_eccentricity": 0.00135441,
        "meta_inclination": 64.4048,
        "meta_ra_of_asc_node": 320.7357,
        "meta_arg_of_pericenter": 278.4426,
        "meta_mean_anomaly": 81.3985,
        "meta_ephemeris_type": 0,
        "meta_classification_type": "U",
        "meta_norad_cat_id": 52984,
        "meta_element_set_no": 999,
        "meta_rev_at_epoch": 2693,
        "meta_bstar": 0,
        "meta_mean_motion_dot": -4.6e-07,
        "meta_mean_motion_ddot": 0,
        "tle_line1": "1 52984U 22075A   25355.72834750 -.00000046  00000+0  00000+0 0  9999",
        "tle_line2": "2 52984  64.4048 320.7357 0013544 278.4426  81.3985  2.13102032 26931"
      },
      "geometry": {
        "type": "Point",
        "coordinates": [
          127.10472744449144,
          26.10238538401196
        ]
      }
    },
    {
      "type": "Feature",
      "properties": {
        "norad_id": 54031,
        "name": "COSMOS 2559 (707K)",
        "group": "gnss",
        "lat": -58.007396866872924,
        "lon": -89.38722660581018,
        "alt_km": 19140.310476634615,
        "timestamp": "2025-12-22T20:43:46.092804+00:00",
        "meta_object_name": "COSMOS 2559 (707K)",
        "meta_object_id": "2022-130A",
        "meta_epoch": "2025-12-22T00:24:12.527424",
        "meta_mean_motion": 2.13101328,
        "meta_eccentricity": 0.00115649,
        "meta_inclination": 64.377,
        "meta_ra_of_asc_node": 320.8148,
        "meta_arg_of_pericenter": 191.8741,
        "meta_mean_anomaly": 168.0944,
        "meta_ephemeris_type": 0,
        "meta_classification_type": "U",
        "meta_norad_cat_id": 54031,
        "meta_element_set_no": 999,
        "meta_rev_at_epoch": 2491,
        "meta_bstar": 0,
        "meta_mean_motion_dot": -4.4e-07,
        "meta_mean_motion_ddot": 0,
        "tle_line1": "1 54031U 22130A   25356.01681166 -.00000044  00000+0  00000+0 0  9998",
        "tle_line2": "2 54031  64.3770 320.8148 0011564 191.8741 168.0944  2.13101328 24915"
      },
      "geometry": {
        "type": "Point",
        "coordinates": [
          -89.38722660581018,
          -58.007396866872924
        ]
      }
    },
    {
      "type": "Feature",
      "properties": {
        "norad_id": 54377,
        "name": "COSMOS 2564 (761)",
        "group": "gnss",
        "lat": 43.20575161033823,
        "lon": -135.08944031798654,
        "alt_km": 19144.6027545506,
        "timestamp": "2025-12-22T20:43:46.092815+00:00",
        "meta_object_name": "COSMOS 2564 (761)",
        "meta_object_id": "2022-161A",
        "meta_epoch": "2025-12-22T07:55:31.529856",
        "meta_mean_motion": 2.13102051,
        "meta_eccentricity": 0.00085466,
        "meta_inclination": 64.7388,
        "meta_ra_of_asc_node": 198.5802,
        "meta_arg_of_pericenter": 203.7353,
        "meta_mean_anomaly": 156.2926,
        "meta_ephemeris_type": 0,
        "meta_classification_type": "U",
        "meta_norad_cat_id": 54377,
        "meta_element_set_no": 999,
        "meta_rev_at_epoch": 2386,
        "meta_bstar": 0,
        "meta_mean_motion_dot": 9.5e-07,
        "meta_mean_motion_ddot": 0,
        "tle_line1": "1 54377U 22161A   25356.33022604  .00000095  00000+0  00000+0 0  9991",
        "tle_line2": "2 54377  64.7388 198.5802 0008546 203.7353 156.2926  2.13102051 23868"
      },
      "geometry": {
        "type": "Point",
        "coordinates": [
          -135.08944031798654,
          43.20575161033823
        ]
      }
    },
    {
      "type": "Feature",
      "properties": {
        "norad_id": 55268,
        "name": "GPS BIII-6  (PRN 28)",
        "group": "gnss",
        "lat": -49.0424308335309,
        "lon": 101.9100043117248,
        "alt_km": 20183.942274966692,
        "timestamp": "2025-12-22T20:43:46.092827+00:00",
        "meta_object_name": "GPS BIII-6  (PRN 28)",
        "meta_object_id": "2023-009A",
        "meta_epoch": "2025-12-22T10:59:58.065216",
        "meta_mean_motion": 2.00554901,
        "meta_eccentricity": 0.00037047,
        "meta_inclination": 55.1065,
        "meta_ra_of_asc_node": 155.4638,
        "meta_arg_of_pericenter": 355.7912,
        "meta_mean_anomaly": 4.4255,
        "meta_ephemeris_type": 0,
        "meta_classification_type": "U",
        "meta_norad_cat_id": 55268,
        "meta_element_set_no": 999,
        "meta_rev_at_epoch": 2170,
        "meta_bstar": 0,
        "meta_mean_motion_dot": 7.4e-07,
        "meta_mean_motion_ddot": 0,
        "tle_line1": "1 55268U 23009A   25356.45831094  .00000074  00000+0  00000+0 0  9994",
        "tle_line2": "2 55268  55.1065 155.4638 0003704 355.7912   4.4255  2.00554901 21704"
      },
      "geometry": {
        "type": "Point",
        "coordinates": [
          101.9100043117248,
          -49.0424308335309
        ]
      }
    },
    {
      "type": "Feature",
      "properties": {
        "norad_id": 56564,
        "name": "BEIDOU-3 G4 (C62)",
        "group": "gnss",
        "lat": -0.7889512951752167,
        "lon": -157.33063460258902,
        "alt_km": 35776.967402841045,
        "timestamp": "2025-12-22T20:43:46.092839+00:00",
        "meta_object_name": "BEIDOU-3 G4 (C62)",
        "meta_object_id": "2023-066A",
        "meta_epoch": "2025-12-22T14:50:38.567616",
        "meta_mean_motion": 1.00271266,
        "meta_eccentricity": 0.00026585,
        "meta_inclination": 0.7946,
        "meta_ra_of_asc_node": 302.8024,
        "meta_arg_of_pericenter": 227.0981,
        "meta_mean_anomaly": 304.2399,
        "meta_ephemeris_type": 0,
        "meta_classification_type": "U",
        "meta_norad_cat_id": 56564,
        "meta_element_set_no": 999,
        "meta_rev_at_epoch": 962,
        "meta_bstar": 0,
        "meta_mean_motion_dot": -8.9e-07,
        "meta_mean_motion_ddot": 0,
        "tle_line1": "1 56564U 23066A   25356.61850194 -.00000089  00000+0  00000+0 0  9994",
        "tle_line2": "2 56564   0.7946 302.8024 0002658 227.0981 304.2399  1.00271266  9625"
      },
      "geometry": {
        "type": "Point",
        "coordinates": [
          -157.33063460258902,
          -0.7889512951752167
        ]
      }
    }
  ]
}